{
  "norad_id": 67178,
  "name": "STARLINK-35878",
  "history": [
    {
      "epoch": "2026-03-28T16:54:47.281824Z",
      "apogee_km": 483.83080397926733,
      "perigee_km": 482.05940980091054,
      "latitude_deg": -1.6948128762457078e-05,
      "longitude_deg": 123.47234075165997,
      "height_km": 482.79592420673237,
      "semi_major_axis_km": 6861.082106890089,
      "eccentricity": 0.00012909,
      "inclination_deg": 43.0021,
      "raan_deg": 203.2907,
      "arg_perigee_deg": 265.2081,
      "mean_anomaly_deg": 94.8623,
      "mean_motion_rev_day": 15.27614729
    }
  ]
}